start=new Date('2022-03-21T00:00:00.000Z').valueOf();
sats=[{"SEMIMAJOR_AXIS":"6925.322","REF_FRAME":"TEME","RA_OF_ASC_NODE":"116.6993","MEAN_ELEMENT_THEORY":"SGP4","REV_AT_EPOCH":"10619","COUNTRY_CODE":"US","GP_ID":"199198299","SITE":"AFETR","TIME_SYSTEM":"UTC","LAUNCH_DATE":"2020-04-22","PERIOD":"95.592","MEAN_MOTION_DOT":"0.00000542","EPOCH":"2022-03-20T12:20:55.284864","RCS_SIZE":"LARGE","OBJECT_ID":"2020-025BB","EPHEMERIS_TYPE":"0","ELEMENT_SET_NO":"999","CENTER_NAME":"EARTH","INCLINATION":"53.0537","MEAN_ANOMALY":"309.8125","DECAY_DATE":null,"OBJECT_NAME":"STARLINK-1333","ECCENTRICITY":"0.00015780","FILE":"3366568","TLE_LINE2":"2 45580  53.0537 116.6993 0001578  50.3003 309.8125 15.06408701106191","APOAPSIS":"548.280","PERIAPSIS":"546.094","TLE_LINE1":"1 45580U 20025BB  22079.51452876  .00000542  00000-0  55280-4 0  9994","ARG_OF_PERICENTER":"50.3003","CLASSIFICATION_TYPE":"U","BSTAR":"0.00005528000000","OBJECT_TYPE":"PAYLOAD","MEAN_MOTION":"15.06408701","NORAD_CAT_ID":"45580","MEAN_MOTION_DDOT":"0.0000000000000"},{"BSTAR":"0.00012363000000","OBJECT_TYPE":"PAYLOAD","NORAD_CAT_ID":"45581","MEAN_MOTION":"15.06411477","MEAN_MOTION_DDOT":"0.0000000000000","PERIAPSIS":"546.021","TLE_LINE1":"1 45581U 20025BC  22079.78451369  .00001561  00000-0  12363-3 0  9996","APOAPSIS":"548.336","ARG_OF_PERICENTER":"57.4870","CLASSIFICATION_TYPE":"U","MEAN_ANOMALY":"302.6280","INCLINATION":"53.0529","OBJECT_NAME":"STARLINK-1335","DECAY_DATE":null,"FILE":"3367488","ECCENTRICITY":"0.00016710","TLE_LINE2":"2 45581  53.0529 105.4925 0001671  57.4870 302.6280 15.06411477106971","EPHEMERIS_TYPE":"0","OBJECT_ID":"2020-025BC","ELEMENT_SET_NO":"999","CENTER_NAME":"EARTH","PERIOD":"95.591","MEAN_MOTION_DOT":"0.00001561","EPOCH":"2022-03-20T18:49:41.982816","RCS_SIZE":"LARGE","GP_ID":"199264977","TIME_SYSTEM":"UTC","SITE":"AFETR","LAUNCH_DATE":"2020-04-22","MEAN_ELEMENT_THEORY":"SGP4","RA_OF_ASC_NODE":"105.4925","REF_FRAME":"TEME","REV_AT_EPOCH":"10697","COUNTRY_CODE":"US","SEMIMAJOR_AXIS":"6925.313"},{"GP_ID":"199229900","SITE":"AFETR","TIME_SYSTEM":"UTC","LAUNCH_DATE":"2020-04-22","PERIOD":"95.592","MEAN_MOTION_DOT":"-0.00000297","EPOCH":"2022-03-20T11:23:51.217440","RCS_SIZE":"LARGE","SEMIMAJOR_AXIS":"6925.332","REF_FRAME":"TEME","RA_OF_ASC_NODE":"106.8782","MEAN_ELEMENT_THEORY":"SGP4","REV_AT_EPOCH":"10692","COUNTRY_CODE":"US","APOAPSIS":"548.321","TLE_LINE1":"1 45582U 20025BD  22079.47489835 -.00000297  00000-0 -10648-5 0  9995","PERIAPSIS":"546.074","ARG_OF_PERICENTER":"50.0051","CLASSIFICATION_TYPE":"U","BSTAR":"-0.00000106480000","OBJECT_TYPE":"PAYLOAD","MEAN_MOTION":"15.06405279","NORAD_CAT_ID":"45582","MEAN_MOTION_DDOT":"0.0000000000000","EPHEMERIS_TYPE":"0","OBJECT_ID":"2020-025BD","ELEMENT_SET_NO":"999","CENTER_NAME":"EARTH","MEAN_ANOMALY":"310.1080","INCLINATION":"53.0540","DECAY_DATE":null,"OBJECT_NAME":"STARLINK-1337","ECCENTRICITY":"0.00016220","FILE":"3367010","TLE_LINE2":"2 45582  53.0540 106.8782 0001622  50.0051 310.1080 15.06405279106927"},{"SITE":"AFETR","TIME_SYSTEM":"UTC","GP_ID":"199265979","LAUNCH_DATE":"2020-04-22","PERIOD":"95.592","RCS_SIZE":"LARGE","EPOCH":"2022-03-20T18:55:01.385472","MEAN_MOTION_DOT":"0.00001179","SEMIMAJOR_AXIS":"6925.321","REV_AT_EPOCH":"10697","REF_FRAME":"TEME","MEAN_ELEMENT_THEORY":"SGP4","RA_OF_ASC_NODE":"105.4696","COUNTRY_CODE":"US","ARG_OF_PERICENTER":"42.1755","APOAPSIS":"548.717","PERIAPSIS":"545.656","TLE_LINE1":"1 45583U 20025BE  22079.78821048  .00001179  00000-0  98030-4 0  9994","CLASSIFICATION_TYPE":"U","OBJECT_TYPE":"PAYLOAD","BSTAR":"0.00009803000000","MEAN_MOTION_DDOT":"0.0000000000000","NORAD_CAT_ID":"45583","MEAN_MOTION":"15.06408894","ELEMENT_SET_NO":"999","OBJECT_ID":"2020-025BE","EPHEMERIS_TYPE":"0","CENTER_NAME":"EARTH","DECAY_DATE":null,"OBJECT_NAME":"STARLINK-1340","MEAN_ANOMALY":"317.9404","INCLINATION":"53.0521","TLE_LINE2":"2 45583  53.0521 105.4696 0002210  42.1755 317.9404 15.06408894106979","ECCENTRICITY":"0.00022100","FILE":"3367488"},{"ARG_OF_PERICENTER":"68.7252","TLE_LINE1":"1 45584U 20025BF  22079.77714996  .00000436  00000-0  48164-4 0  9995","PERIAPSIS":"546.076","APOAPSIS":"548.335","CLASSIFICATION_TYPE":"U","OBJECT_TYPE":"PAYLOAD","BSTAR":"0.00004816400000","MEAN_MOTION_DDOT":"0.0000000000000","MEAN_MOTION":"15.06402717","NORAD_CAT_ID":"45584","ELEMENT_SET_NO":"999","OBJECT_ID":"2020-025BF","EPHEMERIS_TYPE":"0","CENTER_NAME":"EARTH","OBJECT_NAME":"STARLINK-1343","DECAY_DATE":null,"MEAN_ANOMALY":"291.3911","INCLINATION":"53.0549","TLE_LINE2":"2 45584  53.0549 105.5218 0001631  68.7252 291.3911 15.06402717106979","FILE":"3367488","ECCENTRICITY":"0.00016310","SITE":"AFETR","TIME_SYSTEM":"UTC","GP_ID":"199265730","LAUNCH_DATE":"2020-04-22","PERIOD":"95.592","RCS_SIZE":"LARGE","EPOCH":"2022-03-20T18:39:05.756544","MEAN_MOTION_DOT":"0.00000436","SEMIMAJOR_AXIS":"6925.340","REV_AT_EPOCH":"10697","RA_OF_ASC_NODE":"105.5218","MEAN_ELEMENT_THEORY":"SGP4","REF_FRAME":"TEME","COUNTRY_CODE":"US"},{"ELEMENT_SET_NO":"999","OBJECT_ID":"2020-025BH","EPHEMERIS_TYPE":"0","CENTER_NAME":"EARTH","DECAY_DATE":null,"OBJECT_NAME":"STARLINK-1347","MEAN_ANOMALY":"308.4096","INCLINATION":"53.0536","TLE_LINE2":"2 45586  53.0536 105.4308 0001539  51.7031 308.4096 15.06411595106361","ECCENTRICITY":"0.00015390","FILE":"3367058","ARG_OF_PERICENTER":"51.7031","APOAPSIS":"548.244","TLE_LINE1":"1 45586U 20025BH  22079.79927033  .00001593  00000-0  12576-3 0  9999","PERIAPSIS":"546.112","CLASSIFICATION_TYPE":"U","OBJECT_TYPE":"PAYLOAD","BSTAR":"0.00012576000000","MEAN_MOTION_DDOT":"0.0000000000000","NORAD_CAT_ID":"45586","MEAN_MOTION":"15.06411595","SEMIMAJOR_AXIS":"6925.313","REV_AT_EPOCH":"10636","REF_FRAME":"TEME","MEAN_ELEMENT_THEORY":"SGP4","RA_OF_ASC_NODE":"105.4308","COUNTRY_CODE":"US","SITE":"AFETR","TIME_SYSTEM":"UTC","GP_ID":"199235233","LAUNCH_DATE":"2020-04-22","PERIOD":"95.591","RCS_SIZE":"LARGE","MEAN_MOTION_DOT":"0.00001593","EPOCH":"2022-03-20T19:10:56.956512"},{"DECAY_DATE":null,"OBJECT_NAME":"STARLINK-1349","MEAN_ANOMALY":"301.8152","INCLINATION":"53.0536","TLE_LINE2":"2 45587  53.0536 105.5552 0001694  58.3002 301.8152 15.06406075106971","FILE":"3367488","ECCENTRICITY":"0.00016940","ELEMENT_SET_NO":"999","EPHEMERIS_TYPE":"0","OBJECT_ID":"2020-025BJ","CENTER_NAME":"EARTH","OBJECT_TYPE":"PAYLOAD","BSTAR":"0.00028441000000","MEAN_MOTION_DDOT":"0.0000000000000","MEAN_MOTION":"15.06406075","NORAD_CAT_ID":"45587","ARG_OF_PERICENTER":"58.3002","APOAPSIS":"548.368","TLE_LINE1":"1 45587U 20025BJ  22079.76976956  .00003958  00000-0  28441-3 0  9990","PERIAPSIS":"546.022","CLASSIFICATION_TYPE":"U","REV_AT_EPOCH":"10697","REF_FRAME":"TEME","RA_OF_ASC_NODE":"105.5552","MEAN_ELEMENT_THEORY":"SGP4","COUNTRY_CODE":"US","SEMIMAJOR_AXIS":"6925.330","PERIOD":"95.592","RCS_SIZE":"LARGE","EPOCH":"2022-03-20T18:28:28.089984","MEAN_MOTION_DOT":"0.00003958","SITE":"AFETR","TIME_SYSTEM":"UTC","GP_ID":"199264728","LAUNCH_DATE":"2020-04-22"},{"CENTER_NAME":"EARTH","ELEMENT_SET_NO":"999","OBJECT_ID":"2020-025BK","EPHEMERIS_TYPE":"0","TLE_LINE2":"2 45588  53.0545 106.8609 0001453  75.8491 284.2659 15.06394325106923","FILE":"3367010","ECCENTRICITY":"0.00014530","DECAY_DATE":null,"OBJECT_NAME":"STARLINK-1360","MEAN_ANOMALY":"284.2659","INCLINATION":"53.0545","CLASSIFICATION_TYPE":"U","ARG_OF_PERICENTER":"75.8491","APOAPSIS":"548.237","PERIAPSIS":"546.225","TLE_LINE1":"1 45588U 20025BK  22079.48226637  .00002275  00000-0  17159-3 0  9999","MEAN_MOTION_DDOT":"0.0000000000000","NORAD_CAT_ID":"45588","MEAN_MOTION":"15.06394325","OBJECT_TYPE":"PAYLOAD","BSTAR":"0.00017159000000","SEMIMAJOR_AXIS":"6925.366","COUNTRY_CODE":"US","REV_AT_EPOCH":"10692","REF_FRAME":"TEME","MEAN_ELEMENT_THEORY":"SGP4","RA_OF_ASC_NODE":"106.8609","LAUNCH_DATE":"2020-04-22","TIME_SYSTEM":"UTC","SITE":"AFETR","GP_ID":"199228153","RCS_SIZE":"LARGE","EPOCH":"2022-03-20T11:34:27.814368","MEAN_MOTION_DOT":"0.00002275","PERIOD":"95.593"},{"COUNTRY_CODE":"US","REF_FRAME":"TEME","MEAN_ELEMENT_THEORY":"SGP4","RA_OF_ASC_NODE":"107.4652","REV_AT_EPOCH":"10690","SEMIMAJOR_AXIS":"6925.289","EPOCH":"2022-03-20T08:18:06.928992","MEAN_MOTION_DOT":"0.00007377","RCS_SIZE":"LARGE","PERIOD":"95.591","LAUNCH_DATE":"2020-04-22","GP_ID":"199228403","SITE":"AFETR","TIME_SYSTEM":"UTC","FILE":"3367010","ECCENTRICITY":"0.00017430","TLE_LINE2":"2 45589  53.0525 107.4652 0001743  62.4028 297.7138 15.06419572106908","MEAN_ANOMALY":"297.7138","INCLINATION":"53.0525","DECAY_DATE":null,"OBJECT_NAME":"STARLINK-1364","CENTER_NAME":"EARTH","OBJECT_ID":"2020-025BL","EPHEMERIS_TYPE":"0","ELEMENT_SET_NO":"999","MEAN_MOTION":"15.06419572","NORAD_CAT_ID":"45589","MEAN_MOTION_DDOT":"0.0000000000000","BSTAR":"0.00051332000000","OBJECT_TYPE":"PAYLOAD","CLASSIFICATION_TYPE":"U","APOAPSIS":"548.361","PERIAPSIS":"545.946","TLE_LINE1":"1 45589U 20025BL  22079.34591353  .00007377  00000-0  51332-3 0  9994","ARG_OF_PERICENTER":"62.4028"},{"SEMIMAJOR_AXIS":"6925.333","REV_AT_EPOCH":"10651","MEAN_ELEMENT_THEORY":"SGP4","RA_OF_ASC_NODE":"137.1031","REF_FRAME":"TEME","COUNTRY_CODE":"US","TIME_SYSTEM":"UTC","SITE":"AFETR","GP_ID":"199229654","LAUNCH_DATE":"2020-04-22","PERIOD":"95.592","RCS_SIZE":"LARGE","MEAN_MOTION_DOT":"0.00003344","EPOCH":"2022-03-20T10:16:10.279200","ELEMENT_SET_NO":"999","OBJECT_ID":"2020-025BM","EPHEMERIS_TYPE":"0","CENTER_NAME":"EARTH","OBJECT_NAME":"STARLINK-1365","DECAY_DATE":null,"MEAN_ANOMALY":"299.2370","INCLINATION":"53.0533","TLE_LINE2":"2 45590  53.0533 137.1031 0001675  60.8786 299.2370 15.06405219106512","FILE":"3367010","ECCENTRICITY":"0.00016750","ARG_OF_PERICENTER":"60.8786","TLE_LINE1":"1 45590U 20025BM  22079.42789675  .00003344  00000-0  24325-3 0  9993","PERIAPSIS":"546.038","APOAPSIS":"548.358","CLASSIFICATION_TYPE":"U","OBJECT_TYPE":"PAYLOAD","BSTAR":"0.00024325000000","MEAN_MOTION_DDOT":"0.0000000000000","MEAN_MOTION":"15.06405219","NORAD_CAT_ID":"45590"}];
